32P/ComasSola,e,9.9069,54.6028,54.7914,4.555551,0.1013661,0.55682598,315.5618,02/07.0/2023,2000,g  6.5,8.0
# From MPEC 2013-O31
33P/Daniel,e,22.2941,66.2993,20.4620,4.088180,0.1192365,0.45180405,283.2542,02/07.0/2023,2000,g 10.0,12.0
# From  15, 452
35P/Herschel-Rigollet,e,65.244,356.713,28.980,28.5463,0.006462,0.9743824,0.000,02/11.9563/2092,2000,g  9.0,4.0
# From MPEC 2022-ED3
36P/Whipple,e,9.9529,181.8408,201.0412,4.137157,0.1171254,0.26908476,114.7902,02/07.0/2023,2000,g  8.5,6.0
# From MPEC 2021-F20
37P/Forbes,e,8.9515,314.5667,330.1021,3.461766,0.1530233,0.53307712,266.3166,02/07.0/2023,2000,g 13.8,4.0
# From MPEC 2018-S50
38P/Stephan-Oterma,e,18.3910,77.9016,359.5051,11.23831,0.0261609,0.85945306,40.4996,02/07.0/2023,2000,g  3.5,12.0
# From MPEC 2022-A21
39P/Oterma,e,1.5434,297.2768,100.8736,7.276844,0.0502099,0.21548303,352.8094,02/07.0/2023,2000,g  7.0,6.0
# From MPC100283
40P/Vaisala,e,11.4641,133.6881,47.4381,4.955417,0.0893478,0.63075726,269.5745,02/07.0/2023,2000,g  5.5,12.0
# From MPC105240
41P/Tuttle-Giacobini-Kresak,e,9.2207,140.9883,62.2085,3.087903,0.1816388,0.65991438,26.6272,02/07.0/2023,2000,g 10.0,16.0
# From MPC 94283
42P/Neujmin,e,3.9910,150.1756,147.2268,4.874004,0.0915957,0.58460865,261.7542,02/07.0/2023,2000,g 13.0,6.0
# From MPEC 2022-C56
43P/Wolf-Harrington,e,9.3315,244.0293,224.0740,4.320474,0.1097506,0.43524013,260.0000,02/07.0/2023,2000,g  8.0,6.0
# From MPEC 2023-C45
44P/Reinmuth,e,5.8967,286.4292,58.0436,3.689131,0.1390971,0.42744670,40.3320,02/07.0/2023,2000,g  8.3,6.0
# From MPEC 2022-O01
45P/Honda-Mrkos-Pajdusakova,e,4.3229,87.6925,327.9203,3.055666,0.1845207,0.81766476,52.7785,02/07.0/2023,2000,g 13.5,8.0
# From MPEC 2021-O56
46P/Wirtanen,e,11.7493,82.1617,356.3272,3.091672,0.1813068,0.65871599,275.2338,02/07.0/2023,2000,g 14.0,6.0
# From MPEC 2021-F20
47P/Ashbrook-Jackson,e,13.0403,356.9189,357.7529,4.121854,0.1177783,0.31871840,243.0227,02/07.0/2023,2000,g 12.2,4.0
# From MPEC 2021-F20
48P/Johnson,e,12.2008,110.0932,216.7415,3.501045,0.1504553,0.42715881,246.4998,02/07.0/2023,2000,g 12.4,4.0
# From MPEC 2021-F20
49P/Arend-Rigaux,e,19.0523,118.7917,332.9202,3.569418,0.1461531,0.59858283,243.9747,02/07.0/2023,2000,g 13.4,4.0
# From MPEC 2015-S97
50P/Arend,e,19.1009,355.1748,49.3490,4.087465,0.1192677,0.52961729,305.0346,02/07.0/2023,2000,g  9.5,6.0
# From MPEC 2022-UE6
51P/Harrington,e,5.4262,83.6624,269.2624,3.707772,0.1380494,0.54350122,17.7681,02/07.0/2023,2000,g 10.0,8.0
# From NK 3014
51P-A/Harrington,e,5.4262,83.6626,269.2341,3.709378,0.1379598,0.54372777,17.4033,02/07.0/2023,2000,g 10.0,8.0
# From MPEC 2022-X67
51P-D/Harrington,e,5.4267,83.6509,269.2805,3.708140,0.1380289,0.54363215,17.7070,02/07.0/2023,2000,g 16.0,8.0
# From MPEC 2022-L66
52P/Harrington-Abell,e,10.2310,336.8288,139.5605,3.863799,0.1297724,0.54027903,63.5640,02/07.0/2023,2000,g 13.5,6.0
# From MPC100283
53P/Van Biesbroeck,e,6.6083,148.8208,134.4974,5.432225,0.0778462,0.55054560,192.6930,02/07.0/2023,2000,g  7.7,4.8
# From MPC 89011
54P/de Vico-Swift-NEAT,e,6.0643,358.8131,1.8876,3.788487,0.1336612,0.42646435,283.1819,02/07.0/2023,2000,g  9.0,4.0
# From MPC 31070
55P/Tempel-Tuttle,e,162.5025,235.4195,172.4738,10.35639,0.0295727,0.90534699,270.5304,02/07.0/2023,2000,g  9.0,4.0
# From MPC101100
56P/Slaughter-Burnham,e,8.1596,345.9819,44.0404,5.066018,0.0864379,0.50849894,206.5824,02/07.0/2023,2000,g  8.5,6.0
# From MPEC 2023-C45
57P/duToit-Neujmin-Delporte,e,2.8524,188.7764,115.1497,3.443945,0.1542126,0.50086059,73.6827,02/07.0/2023,2000,g 12.5,6.0
# From MPEC 2021-O56
58P/Jackson-Neujmin,e,13.1064,159.0747,200.5396,4.088224,0.1192345,0.66272629,117.4691,02/07.0/2023,2000,g 15.5,6.0
# From MPEC 2023-A50
59P/Kearns-Kwee,e,9.3442,312.7918,127.5189,4.483262,0.1038276,0.47613181,166.4823,02/07.0/2023,2000,g  7.0,6.0
# From MPEC 2021-F20
60P/Tsuchinshan,e,3.5805,267.4462,216.9831,3.526052,0.1488576,0.53359563,226.7653,02/07.0/2023,2000,g 11.5,6.0
# From MPEC 2023-BF4
61P/Shajn-Schaldach,e,5.9995,162.9622,221.6452,3.689736,0.1390629,0.42386495,14.7735,02/07.0/2023,2000,g  6.0,10.0
# From MPC109147
62P/Tsuchinshan,e,4.7360,68.6921,47.3233,3.369552,0.1593477,0.62500319,308.8490,02/07.0/2023,2000,g  8.0,10.0
# From MPC 84320
63P/Wild,e,19.7224,358.0132,168.9701,5.613813,0.0740998,0.64979009,267.5257,02/07.0/2023,2000,g 10.5,6.0
# From MPEC 2023-A50
64P/Swift-Gehrels,e,8.9490,299.9087,97.1588,4.452576,0.1049028,0.68866847,163.0641,02/07.0/2023,2000,g  9.5,12.0
# From MPEC 2023-C45
65P/Gunn,e,9.1758,61.9860,213.8755,3.889010,0.1285125,0.24844396,249.3369,02/07.0/2023,2000,g  5.0,6.0
# From MPEC 2021-F20
66P/duToit,e,18.6385,21.7771,257.4870,6.070409,0.0658987,0.78583190,113.7515,02/07.0/2023,2000,g 15.0,4.0
# From MPEC 2023-A50
67P/Churyumov-Gerasimenko,e,3.8719,36.3288,22.1502,3.457244,0.1533236,0.64987970,70.8143,02/07.0/2023,2000,g 11.0,4.0
# From MPEC 2022-H04
68P/Klemola,e,11.1114,175.0465,153.2482,4.959148,0.0892470,0.63718359,105.8487,02/07.0/2023,2000,g 12.7,4.0
# From MPEC 2023-A50
69P/Taylor,e,22.0464,104.8064,343.3945,3.884345,0.1287441,0.41387706,182.9950,02/07.0/2023,2000,g  9.5,12.0
# From MPEC 2022-P82
70P/Kojima,e,6.5980,119.2564,1.7963,3.677483,0.1397584,0.45392992,64.4182,02/07.0/2023,2000,g 11.0,6.0
# From MPEC 2022-M88
71P/Clark,e,9.4382,59.3936,209.0638,3.138158,0.1772931,0.49370742,2.6955,02/07.0/2023,2000,g  9.8,6.0
# From MPC 89011
72P/Denning-Fujikawa,e,10.9487,26.7017,346.7317,4.307163,0.1102598,0.81865973,345.7895,02/07.0/2023,2000,g 17.5,10.0
# From MPEC 2023-BF4
73P/Schwassmann-Wachmann,e,11.2288,69.5999,199.5051,3.093349,0.1811593,0.68547823,29.9268,02/07.0/2023,2000,g 11.5,6.0
# From MPC106348
73P-T/Schwassmann-Wachmann,e,11.2308,69.6027,199.4854,3.094811,0.1810309,0.68567282,29.6493,02/07.0/2023,2000,g 11.5,6.0
# From MPEC 2022-P18
73P-U/Schwassmann-Wachmann,e,11.0705,70.6666,199.8896,2.877001,0.2019734,0.66620497,33.5492,02/07.0/2023,2000,g 19.0,4.0
# From MPEC 2022-X67
73P-V/Schwassmann-Wachmann,e,11.2447,69.4786,199.3812,3.146722,0.1765698,0.69038954,29.3106,02/07.0/2023,2000,g 19.0,4.0
# From MPEC 2022-R15
73P-W/Schwassmann-Wachmann,e,11.6030,67.3058,198.7502,4.594027,0.1000953,0.78221379,16.5685,02/07.0/2023,2000,g 18.2,4.0
# From MPEC 2023-A50
73P-X/Schwassmann-Wachmann,e,11.2604,69.4716,199.3995,3.125986,0.1783296,0.68833946,29.5432,02/07.0/2023,2000,g 17.5,4.0
# From MPEC 2022-R15
73P-Y/Schwassmann-Wachmann,e,11.1991,69.7573,199.4787,3.035185,0.1863916,0.68008470,31.0715,02/07.0/2023,2000,g 17.4,4.0
# From MPEC 2022-P18
73P-BU/Schwassmann-Wachmann,e,11.0705,70.6666,199.8896,2.877001,0.2019734,0.66620497,33.5492,02/07.0/2023,2000,g 19.0,4.0
# From MPEC 2022-X67
73P-BV/Schwassmann-Wachmann,e,11.2447,69.4786,199.3812,3.146722,0.1765698,0.69038954,29.3106,02/07.0/2023,2000,g 19.0,4.0
# From MPEC 2022-R15
73P-BW/Schwassmann-Wachmann,e,11.6030,67.3058,198.7502,4.594027,0.1000953,0.78221379,16.5685,02/07.0/2023,2000,g 18.2,4.0
# From MPEC 2023-A50
73P-BX/Schwassmann-Wachmann,e,11.2604,69.4716,199.3995,3.125986,0.1783296,0.68833946,29.5432,02/07.0/2023,2000,g 17.5,4.0
# From MPEC 2022-R15
73P-BY/Schwassmann-Wachmann,e,11.1991,69.7573,199.4787,3.035185,0.1863916,0.68008470,31.0715,02/07.0/2023,2000,g 17.4,4.0
# From MPEC 2023-A50
74P/Smirnova-Chernykh,e,6.3489,54.6959,139.5957,4.639065,0.0986412,0.08197754,172.4772,02/07.0/2023,2000,g  5.0,6.0
# From MPEC 2022-K19
76P/West-Kohoutek-Ikemura,e,30.4830,84.1043,359.9345,3.470518,0.1524448,0.53875773,182.8687,02/07.0/2023,2000,g  8.0,12.0
# From MPEC 2023-C45
77P/Longmore,e,24.3190,14.7681,196.7364,3.623926,0.1428680,0.35187497,352.1227,02/07.0/2023,2000,g  7.0,8.0
# From MPEC 2021-O56
78P/Gehrels,e,6.2570,210.5184,192.6472,3.736907,0.1364381,0.46292394,191.6651,02/07.0/2023,2000,g  5.5,8.0
# From MPC 94675
79P/du Toit-Hartley,e,3.1487,280.5198,281.7872,2.943644,0.1951534,0.61914064,314.0665,02/07.0/2023,2000,g 16.0,4.0
# From MPEC 2014-P41
80P/Peters-Hartley,e,29.9235,259.7962,339.2451,4.023329,0.1221310,0.59851136,7.3449,02/07.0/2023,2000,g  9.0,4.0
# From MPEC 2023-C45
81P/Wild,e,3.2365,136.0984,41.6259,3.454460,0.1535090,0.53728117,8.1951,02/07.0/2023,2000,g  7.0,6.0
# From MPC133426
82P/Gehrels,e,1.1292,239.3227,226.3569,4.133221,0.1172927,0.12205461,198.2495,02/07.0/2023,2000,g 15.0,4.0
# From MPEC 2020-FB5
84P/Giclas,e,7.5502,108.1369,281.6373,3.549873,0.1473618,0.51608586,144.0663,02/07.0/2023,2000,g  9.5,8.0
# From MPEC 2022-YB4
86P/Wild,e,15.4738,72.3297,179.5491,3.604165,0.1440447,0.37243707,52.4422,02/07.0/2023,2000,g 11.0,6.0
# From MPEC 2020-SI8
87P/Bus,e,4.4313,183.8048,33.6941,3.602792,0.1441270,0.40781264,131.5256,02/07.0/2023,2000,g  7.2,10.0
# From MPEC 2022-ED3
88P/Howell,e,4.3821,56.6696,235.9391,3.106222,0.1800343,0.56364745,155.5151,02/07.0/2023,2000,g 11.0,6.0
# From MPC100283
89P/Russell,e,12.0718,41.3470,250.3995,3.753428,0.1355383,0.40811428,303.9467,02/07.0/2023,2000,g 11.5,6.0
# From MPEC 2022-K19
90P/Gehrels,e,9.6512,13.2053,29.0667,6.051145,0.0662137,0.51104213,136.1501,02/07.0/2023,2000,g  8.5,6.0
# From MPEC 2021-S45
91P/Russell,e,14.2391,246.3907,356.3712,3.902220,0.1278605,0.33481925,104.4283,02/07.0/2023,2000,g  7.5,6.0
# From MPEC 2014-J58
92P/Sanguin,e,19.5080,181.3616,163.8101,5.342939,0.0798057,0.66095665,230.8861,02/07.0/2023,2000,g 12.0,6.0
# From NK 2707
93P/Lovas,e,12.2033,339.6270,74.8517,4.379627,0.1075346,0.61364077,233.0119,02/07.0/2023,2000,g  9.0,4.0
# From MPEC 2023-C45
94P/Russell,e,6.1877,70.8564,92.4203,3.509376,0.1499199,0.36539727,344.5449,02/07.0/2023,2000,g  9.0,6.0
# From MPC 75717
95P/Chiron,e,6.9183,209.3052,339.4471,13.71304,0.0194090,0.37620342,192.5346,02/07.0/2023,2000,g  6.5,2.0
# From MPEC 2022-ST7
96P/Machholz,e,57.5030,93.9541,14.7486,3.030774,0.1867987,0.96158578,1.2910,02/07.0/2023,2000,g 13.0,4.8
# From MPEC 2022-C56
97P/Metcalf-Brewington,e,17.9521,184.0767,230.0127,4.762186,0.0948407,0.46019719,33.7918,02/07.0/2023,2000,g  5.5,6.0
# From MPEC 2021-W31
98P/Takamizawa,e,10.5617,114.6763,157.7953,3.793239,0.1334101,0.56219712,101.8551,02/07.0/2023,2000,g  9.0,8.0
